,icao,iata,name,state,country,country_code,lat,lon
0,LEVC,VLC,Valencia Airport,,Spain,ES,39.4892997742,-0.4816249907
1,EDDW,BRE,Bremen Airport,,Germany,DE,53.0475006104,8.7866697311
2,UIII,IKT,Irkutsk Airport,,Russia,RU,52.2680015564,104.388999939
3,SVCB,CBL,Ciudad Bolívar Airport,,Venezuela,VE,8.1221609116,-63.5369567871
4,FNLU,LAD,Luanda Airport,,Angola,AO,-8.8583698273,13.2312002182
5,EDXH,HGL,Helgoland Airfield,,Germany,DE,54.1852798462,7.9158329964
6,EGNH,BLK,Blackpool Airport,,United Kingdom,GB,53.7717018127,-3.0286099911
7,UHSH,OHH,Okha Airport,,Russia,RU,53.5200004578,142.88999939
8,KALM,ALM,Alamogordo Municipal Airport,NM,United States of America,US,32.8394166666667,-105.991138888889
9,SKVV,VVC,Villavicencio Airport,,Colombia,CO,4.16787,-73.6138
10,SVCN,CAJ,Canaima Airport,,Venezuela,VE,6.2319889069,-62.8544311523
11,xxxx,MZN,Minj Airport,,Papua New Guinea,PG,-9.45508,147.20381
12,HAAX,AXU,Axum Airport,,Ethiopia,ET,14.1468000412,38.7728004456
13,xxxx,xxx,Nazimovo Airstrip,,Russia,RU,58.6416,42.14508
14,BIKF,KEF,Keflavík International Airport,,Iceland,IS,63.9850006104,-22.6056003571
15,HECA,CAI,Cairo International Airport,,Egypt,EG,30.1219005585,31.4055995941
16,OPGT,GIL,Gilgit Airport,,Pakistan,PK,35.918800354,74.3336029053
17,CYYZ,YYZ,Toronto International Airport,ON,Canada,CA,43.6772003174,-79.6305999756
18,xxxx,xxx,Kazan Airport,,Russia,RU,55.78498,49.11898
19,HECA,CAI,Cairo International Airport,,Egypt,EG,30.1219005585,31.4055995941
20,UTDD,DYU,Dushanbe Airport,,Tajikistan,TJ,38.5433006287,68.8249969482
21,UASS,PLX,Semipalatinsk Airport,,Kazakhstan,KZ,50.3512992859,80.2343978882
22,WABI,NBX,Nabire Airport,,Indonesia,ID,-3.3681800365,135.4960021973
23,xxxx,xxx,Elushkino Airstrip,,Russia,RU,55.68234,38.095
24,EGGD,BRS,Bristol Airport,,United Kingdom,GB,51.3827018738,-2.7190899849
25,UIII,IKT,Irkutsk Airport,,Russia,RU,52.2680015564,104.388999939
26,xxxx,xxx,Casey,QC,Canada,CA,47.88852,-74.17518
27,UWWW,KUF,Kuybyshev Airport,,Russia,RU,53.504901886,50.1642990112
28,KEKO,EKO,Elko Airport,NV,United States of America,US,40.825,-115.791333333333
29,LWSK,SKP,Skopje Airport,,North Macedonia,MK,41.9616012573,21.6214008331
30,SBIH,ITB,Itaituba Airport,PA,Brazil,BR,-4.2423400879,-56.0007019043
31,UEEE,YKS,Yakutsk Airport,,Russia,RU,62.0932998657,129.7709960938
32,UTAT,TAZ,Dasoguz Airport,,Turkmenistan,TM,41.761100769,59.8266983032
33,KMIA,MIA,Miami International Airport,FL,United States of America,US,25.7953611111111,-80.2901158333333
34,URRR,ROV,Rostov Airport,,Russia,RU,47.2582015991,39.8180999756
35,NZAA,AKL,Auckland International Airport,,New Zealand,NZ,-37.0080986023,174.7920074463
36,VVQN,UIH,Qui Nhon Airport,,Vietnam,VN,13.9549999237,109.041999817
37,SLTR,TDD,Trinidad Airport,,Bolivia,BO,-14.8186998367,-64.9179992676
38,BIKF,KEF,Keflavík International Airport,,Iceland,IS,63.9850006104,-22.6056003571
39,USKK,KVX,Kirov Airport,,Russia,RU,58.5032997131,49.3483009338
40,URRR,ROV,Rostov Airport,,Russia,RU,47.2582015991,39.8180999756
41,xxxx,WTR,White River Airport,AZ,United States of America,US,33.83486,-109.96493
42,KSAV,SAV,Savannah International Airport,GA,United States of America,US,32.1275833333333,-81.2021388888889
43,HECA,CAI,Cairo International Airport,,Egypt,EG,30.1219005585,31.4055995941
44,SKQU,MQU,Mariquita Airport,,Colombia,CO,5.21256,-74.8836
45,GABS,BKO,Bamako Airport,,Mali,ML,12.5334997177,-7.9499402046
46,SVCU,CUM,Cumaná Airport,,Venezuela,VE,10.4503326416,-64.1304702759
47,PANC,ANC,Anchorage International Airport,AK,United States of America,US,61.1740847222222,-149.9981375
48,PAFA,FAI,Fairbanks International Airport,AK,United States of America,US,64.8153555555556,-147.856666666667
49,CYEG,YEG,Edmonton International Airport,AB,Canada,CA,53.3097000122,-113.580001831
50,HASD,SXU,Soddu Airport,,Ethiopia,ET,6.8169999123,37.75
51,HKNA,NBO,Nairobi International Airport,,Kenya,KE,-1.319239974,36.9277992249
52,UIII,IKT,Irkutsk Airport,,Russia,RU,52.2680015564,104.388999939
53,UTSB,BHK,Bukhara Airport,,Uzbekistan,UZ,39.7750015259,64.4832992554
54,KSEA,SEA,Seattle/Tacoma International Airport,WA,United States of America,US,47.4498888888889,-122.311777777778
55,DRRN,NIM,Niamey Airport,,Niger,NE,13.4814996719,2.1836099625
56,SKNV,NVA,Neiva Airport,,Colombia,CO,2.95015,-75.294
57,KONT,ONT,Ontario International Airport,CA,United States of America,US,34.0560141666667,-117.6011875
58,KMDT,MDT,Harrisburg International Airport,PA,United States of America,US,40.1931916666667,-76.7626191666667
59,KLAW,LAW,Lawton Municipal Airport,OK,United States of America,US,34.5677144444444,-98.4166366666667
60,PAFA,FAI,Fairbanks International Airport,AK,United States of America,US,64.8153555555556,-147.856666666667
61,SADP,EPA,El Palomar Airport,BA,Argentina,AR,-34.6099,-58.6126
62,KHXD,HHH,Hilton Head Airport,SC,United States of America,US,32.224495,-80.6974008333333
63,RPLP,LGP,Legazpi Airport,,Philippines,PH,13.1575,123.735
64,UIAA,HTA,Chita Airport,,Russia,RU,52.0262985229,113.3059997559
65,PAOM,OME,Nome Airport,AK,United States of America,US,64.5125555555556,-165.444388888889
66,HABD,BJR,Bahar Dar Airport,,Ethiopia,ET,11.6080999374,37.3216018677
67,CYPL,YPL,Pickle Lake Airport,ON,Canada,CA,51.4463996887,-90.2142028809
68,CYXS,YXS,Prince George Airport,BC,Canada,CA,53.8894004822,-122.6790008545
69,ULWW,VGD,Vologda Airport,,Russia,RU,59.2825012207,39.9444007874
70,YBMA,ISA,Mount Isa Airport,QLD,Australia,AU,-20.6639003754,139.488998413
71,URRR,ROV,Rostov Airport,,Russia,RU,47.2582015991,39.8180999756
72,OLBA,BEY,Beirut International Airport,,Lebanon,LB,33.8208999634,35.4883995056
73,MMCZ,CZM,Cozumel Airport,,Mexico,MX,20.5223999023,-86.9255981445
74,UAFM,FRU,Frunze Airport,,Kyrgyzstan,KG,43.0612983704,74.4776000977
75,CYIX,xxx,Port Radium,NT,Canada,CA,50.62209,-116.10322
76,UTAA,ASB,Ashgabat Airport,,Turkmenistan,TM,37.9868011475,58.361000061
77,PAJN,JNU,Juneau International Airport,AK,United States of America,US,58.3547118055556,-134.578470527778
78,SAHS,RDS,Rincón de Los Sauces Airport,NE,Argentina,AR,-37.3905982971,-68.9041976929
79,WBKL,LBU,Labuan Airport,,Malaysia,MY,5.3006801605,115.25
80,PACD,CDB,Cold Bay Airport,AK,United States of America,US,55.2059166666667,-162.72625
81,YMAV,AVV,Avalon Airport,VIC,Australia,AU,-38.0393981934,144.468994141
82,CYMO,YMO,Moosonee Airport,ON,Canada,CA,51.2910995483,-80.6078033447
83,LEST,SCQ,Santiago de Compostela Airport,,Spain,ES,42.8963012695,-8.415140152
84,URRR,ROV,Rostov Airport,,Russia,RU,47.2582015991,39.8180999756
85,UKCC,DOK,Donetsk Airport,,Ukraine,UA,48.073600769,37.7397003174
86,LDSP,SPU,Split Airport,,Croatia,HR,43.538898468,16.2980003357
87,xxxx,YSX,Bella Bella/Shearwater Water Aerodrome,BC,Canada,CA,45.42178,-75.69117
88,UKDE,OZH,Zaporozhye Airport,,Ukraine,UA,47.8670005798,35.315700531
89,SPRU,TRU,Trujillo Airport,,Peru,PE,-8.081410408,-79.1088027954
90,CYXS,YXS,Prince George Airport,BC,Canada,CA,53.8894004822,-122.6790008545
91,LYBE,BEG,Beograd Airport,,Serbia,RS,44.8184013367,20.3090991974
92,PANC,ANC,Anchorage International Airport,AK,United States of America,US,61.1740847222222,-149.9981375
93,UTNN,NCU,Nukus Airport,,Uzbekistan,UZ,42.4883995056,59.623298645
94,CYFB,YFB,Frobisher Bay Airport,NU,Canada,CA,63.756401062,-68.5558013916
95,ODAA,ADE,Aden International Airport,,Yemen,YE,12.8295001984,45.0288009644
96,xxxx,xxx,Forish Airstrip,,Uzbekistan,UZ,41.32569,69.24134
97,UKDD,DNK,Dnepropetrovsk Airport,,Ukraine,UA,48.3572006226,35.1006011963
98,KPHL,PHL,Philadelphia International Airport,PA,United States of America,US,39.8720838888889,-75.2406630555556
99,KMSY,MSY,New Orleans International Airport,LA,United States of America,US,29.9932777777778,-90.2590277777778
100,xxxx,xxx,Ayanka Airstrip,,Russia,RU,56.09659,37.78937
101,LBWN,VAR,Varna Airport,,Bulgaria,BG,43.2321014404,27.8250999451
102,LGEL,xxx,Elefsis Air Base,,Greece,GR,38.0638008118,23.5559997559
103,UGSS,SUI,Sukhumi Airport,,Georgia,GE,42.8582000732,41.1281013489
104,UERT,xxx,Vitim,,Russia,RU,59.4580001831,112.56300354
105,HATP,TIE,Tippi Airport,,Ethiopia,ET,7.2024,35.415
106,PARY,RBY,Ruby Airport,AK,United States of America,US,64.7272222222222,-155.469888888889
107,xxxx,xxx,Alatna River,AK,United States of America,US,66.55811,-152.70588
108,PAIL,ILI,Iliamna Airport,AK,United States of America,US,59.7555781111111,-154.91775225
109,VYMS,MOG,Mong Hsat Airport,,Myanmar,MM,20.5167999268,99.2567977905
110,PAYA,YAK,Yakutat Airport,AK,United States of America,US,59.5033233333333,-139.660268055556
111,URRR,ROV,Rostov Airport,,Russia,RU,47.2582015991,39.8180999756
112,LEPA,PMI,Palma de Mallorca Airport,,Spain,ES,39.551700592,2.7388100624
113,MMPQ,PQM,Palenque Airport,,Mexico,MX,17.5333995819,-91.9844970703
114,PAPO,PHO,Point Hope Airport,AK,United States of America,US,68.3487722222222,-166.799261111111
115,WMKP,PEN,Penang International Airport,,Malaysia,MY,5.2971401215,100.2770004272
116,KSFO,SFO,San Francisco International Airport,CA,United States of America,US,37.6188055555556,-122.375416666667
117,CYIO,YIO,Pond Inlet Airport,NU,Canada,CA,72.6832962036,-77.9666976929
118,KPUB,PUB,Pueblo Memorial Airport,CO,United States of America,US,38.2899475,-104.498028055556
119,PABE,BET,Bethel Airport,AK,United States of America,US,60.7785555555556,-161.837166666667
120,SKNV,NVA,Neiva Airport,,Colombia,CO,2.95015,-75.294
121,xxxx,RLD,Richland Airport,WA,United States of America,US,46.3056394444444,-119.304189444444
122,CYYC,YYC,Calgary International Airport,AB,Canada,CA,51.113899231,-114.0199966431
123,DNSO,SKO,Sokoto Airport,,Nigeria,NG,12.9162998199,5.2071900368
124,KLAX,LAX,Los Angeles International Airport,CA,United States of America,US,33.9424963888889,-118.408048611111
125,KLFT,LFT,Lafayette Regional Airport,LA,United States of America,US,30.2050277777778,-91.98775
126,KMOB,MOB,Mobile Municipal Airport,AL,United States of America,US,30.6914166666667,-88.2428333333333
127,KMEM,MEM,Memphis International Airport,TN,United States of America,US,35.0424113888889,-89.9766791666667
128,CYYZ,YYZ,Toronto International Airport,ON,Canada,CA,43.6772003174,-79.6305999756
129,RPVM,CEB,Cebu Airport,,Philippines,PH,10.3074998856,123.9789962769
130,VYPP,PPU,Papun Airport,,Myanmar,MM,18.0666999817,97.449798584
131,FVKB,KAB,Kariba Airport,,Zimbabwe,ZW,-16.5198001862,28.8850002289
132,xxxx,xxx,Yablunivka Airstrip,,Ukraine,UA,50.45047,32.15689
133,KLAX,LAX,Los Angeles International Airport,CA,United States of America,US,33.9424963888889,-118.408048611111
134,URMT,STW,Stavropol Airport,,Russia,RU,45.1091995239,42.1128005981
135,HEAX,ALY,Alexandria Airport,,Egypt,EG,31.1839008331,29.9489002228
136,PAJN,JNU,Juneau International Airport,AK,United States of America,US,58.3547118055556,-134.578470527778
137,UESS,CYX,Cherskiy Airport,,Russia,RU,68.7406005859,161.3379974365
138,OPKC,KHI,Karachi International Airport,,Pakistan,PK,24.9064998627,67.1607971191
139,UTSS,SKD,Samarkand Airport,,Uzbekistan,UZ,39.7005004883,66.9838027954
140,MBSC,XSC,South Caicos International Airport,,Turks and Caicos Islands,TC,21.5156993866,-71.528503418
141,xxxx,xxx,Molodezhnaya Ice Station,,Antarctica,AQ,-80.41318,20.67103
142,UUOB,EGO,Belgorod Airport,,Russia,RU,50.6437988281,36.5900993347
143,LFCR,RDZ,Rodez Airport,,France,FR,44.4079017639,2.4826700687
144,FVKB,KAB,Kariba Airport,,Zimbabwe,ZW,-16.5198001862,28.8850002289
145,NZGS,GIS,Gisborne Airport,,New Zealand,NZ,-38.6632995605,177.9779968262
146,KLAX,LAX,Los Angeles International Airport,CA,United States of America,US,33.9424963888889,-118.408048611111
147,UWGG,GOJ,Gorkiy Airport,,Russia,RU,56.2300987244,43.7840003967
148,UNII,EIE,Yeniseysk Airport,,Russia,RU,58.4742012024,92.1125030518
149,KSJC,SJC,San Jose Municipal Airport,CA,United States of America,US,37.3629947222222,-121.928620555556
150,OLBA,BEY,Beirut International Airport,,Lebanon,LB,33.8208999634,35.4883995056
151,KCAK,CAK,Akron/Canton Regional Airport,OH,United States of America,US,40.9150555555556,-81.4436388888889
152,UUOO,VOZ,Voronezh Airport,,Russia,RU,51.814201355,39.229598999
153,UOOO,NSK,Noril'sk Airport,,Russia,RU,69.3110961914,87.3321990967
154,CWOB,xxx,Brevoort Island Airstrip,NU,Canada,CA,45.42178,-75.69117
155,CYQQ,YQQ,Comox Airport,BC,Canada,CA,49.7108001709,-124.8870010376
156,PAFA,FAI,Fairbanks International Airport,AK,United States of America,US,64.8153555555556,-147.856666666667
157,CYPL,YPL,Pickle Lake Airport,ON,Canada,CA,51.4463996887,-90.2142028809
158,AYKM,KMA,Kerema Airport,,Papua New Guinea,PG,-7.9636101723,145.770996094
159,xxxx,VUS,Velikij Ustyug Airport,,Russia,RU,60.7882995605,46.2599983215
160,SAWG,RGL,Río Gallegos Internacional Airport,SC,Argentina,AR,-51.6089,-69.3126
161,OEJD,JED,Jeddah International Airport,,Saudi Arabia,SA,21.679599762,39.15650177
162,NZAA,AKL,Auckland International Airport,,New Zealand,NZ,-37.0080986023,174.7920074463
163,PAOM,OME,Nome Airport,AK,United States of America,US,64.5125555555556,-165.444388888889
164,SPCL,PCL,Pucallpa Airport,,Peru,PE,-8.3779401779,-74.5743026733
165,FTTJ,NDJ,N'Djamena Airport,,Chad,TD,12.1337003708,15.0340003967
166,ZUGY,KWE,Guiyang Airport,,China,CN,26.5384998322,106.8010025024
167,UNKL,KJA,Krasnoyarsk Airport,,Russia,RU,56.1729011536,92.4933013916
168,MUVR,VRA,Varadero Airport,,Cuba,CU,23.0344009399,-81.4353027344
169,KPBI,PBI,West Palm Beach International Airport,FL,United States of America,US,26.6831616666667,-80.0955919444444
170,FNUB,SDD,Lubango Airport,,Angola,AO,-14.9246997833,13.5749998093
171,UTDL,LBD,Leninabad Airport,,Tajikistan,TJ,40.2154006958,69.6947021484
172,KBAK,CLU,Columbus Municipal Airport,IN,United States of America,US,39.261915,-85.8963388888889
173,MMEP,TPQ,Tepic Airport,,Mexico,MX,21.419500351,-104.8430023193
174,PATG,TOG,Togiak Village Airport,AK,United States of America,US,59.0535555555556,-160.396777777778
175,OERY,RUH,Riyadh International Airport,,Saudi Arabia,SA,24.7098007202,46.7252006531
176,BIBK,BJD,Bakkafjördur Airport,,Iceland,IS,66.0218963623,-14.8243999481
177,OEDR,DHA,Dhahran International Airport,,Saudi Arabia,SA,26.2653999329,50.1520004272
178,UEBB,BQJ,Batagay Airport,,Russia,RU,67.6480026245,134.6950073242
179,MMPS,PXM,Puerto Escondido Airport,,Mexico,MX,15.8768997192,-97.0891036987
180,xxxx,xxx,Severomuysk,,Russia,RU,56.17471,113.5783
181,PAPN,PIP,Pilot Point Airport,AK,United States of America,US,57.5803805555556,-157.571956944444
182,KSBA,SBA,Santa Barbara Municipal Airport,CA,United States of America,US,34.4261913611111,-119.841492694444
183,PAEN,ENA,Kenai Airport,AK,United States of America,US,60.5732777777778,-151.244833333333
184,PADQ,ADQ,Kodiak Airport,AK,United States of America,US,57.7497938888889,-152.493943611111
185,HCMM,MGQ,Mogadishu International Airport,,Somalia,SO,2.0144400597,45.3046989441
186,xxxx,xxx,Penonomé,,Panama,PA,8.51403,-80.35455
187,SHCR,LGR,Cochrane Airport,,Chile,CL,-47.2438011169,-72.5884017944
188,UIAA,HTA,Chita Airport,,Russia,RU,52.0262985229,113.3059997559
189,EHRD,RTM,Rotterdam Airport,,Netherlands,NL,51.9569015503,4.4372200966
190,UNKL,KJA,Krasnoyarsk Airport,,Russia,RU,56.1729011536,92.4933013916
191,RPLL,MNL,Manila International Airport,,Philippines,PH,14.508600235,121.019996643
192,ENBV,BVG,Berlevåg Airport,,Norway,NO,70.8713989258,29.0342006683
193,EDMO,OBF,Oberpfaffenhofen Airport,,Germany,DE,48.081401825,11.2831001282
194,KTEB,TEB,Teterboro Airport,NJ,United States of America,US,40.8501111111111,-74.0608333333333
195,xxxx,MKX,Mukalla Airport,,Yemen,YE,14.54555,49.1281
196,SWEI,ERN,Eirunepé Airport,AM,Brazil,BR,-6.6395301819,-69.8797988892
197,RPMJ,JOL,Jolo Airport,,Philippines,PH,6.0536699295,121.0110015869
198,SEZP,xxx,Zumba Airport,,Ecuador,EC,-4.82328,-79.27759
199,SBTU,TUR,Tucurui Airport,PA,Brazil,BR,-3.7860100269,-49.7202987671
200,KSAF,SAF,Santa Fe Airport,NM,United States of America,US,35.6171111111111,-106.089416666667
201,URRR,ROV,Rostov Airport,,Russia,RU,47.2582015991,39.8180999756
202,KPHL,PHL,Philadelphia International Airport,PA,United States of America,US,39.8720838888889,-75.2406630555556
203,OARG,URZ,Uruzgan Airport,,Afghanistan,AF,33.22818,66.9678
204,SVMI,CCS,Caracas Airport,,Venezuela,VE,10.6031169891,-66.9905853271
205,UGSP,xxx,Poti Airport,,Georgia,GE,42.1629024102,41.7058074474
206,PAOM,OME,Nome Airport,AK,United States of America,US,64.5125555555556,-165.444388888889
207,URMN,NAL,Nalchik Airport,,Russia,RU,43.5129013062,43.6366004944
208,KDFW,DFW,Dallas/Fort Worth International Airport,TX,United States of America,US,32.8972330555556,-97.0376947222222
209,HECA,CAI,Cairo International Airport,,Egypt,EG,30.1219005585,31.4055995941
210,YWDH,WNR,Windorah Airport,QLD,Australia,AU,-25.4130992889,142.6670074463
211,CYBL,YBL,Campbell River Airport,BC,Canada,CA,49.9508018494,-125.2710037231
212,OPKC,KHI,Karachi International Airport,,Pakistan,PK,24.9064998627,67.1607971191
213,RCFN,TTT,Taitung Airport,,Taiwan,TW,22.7549991608,121.1019973755
214,SBCG,CGR,Campo Grande Internacional Airport,MS,Brazil,BR,-20.4687004089,-54.6725006104
215,xxxx,xxx,Lonkin,,Myanmar,MM,19.72682,96.07529
216,CZSJ,ZSJ,Sandy Lake Airport,ON,Canada,CA,53.064201355,-93.3443984985
217,DNMM,LOS,Lagos/Ikeja International Airport,,Nigeria,NG,6.5773701668,3.321160078
218,CYEV,YEV,Inuvik/Mike Zubko Airport,NT,Canada,CA,68.3041992188,-133.483001709
219,UWWW,KUF,Kuybyshev Airport,,Russia,RU,53.504901886,50.1642990112
220,YBTL,TSV,Townsville Airport,QLD,Australia,AU,-19.2525005341,146.7649993896
221,SLTR,TDD,Trinidad Airport,,Bolivia,BO,-14.8186998367,-64.9179992676
222,NSTU,PPG,Pago Pago International Airport,,American Samoa,AS,-14.3316622222222,-170.711503055556
223,EGNX,EMA,East Midlands Airport,,United Kingdom,GB,52.8311004639,-1.3280600309
224,AYTB,TBG,Tabubil Airport,,Papua New Guinea,PG,-5.2786102295,141.2259979248
225,EPOP,xxx,Opole/Polska Nowa Wies Airport,,Poland,PL,50.6333007812,17.7817001343
226,CZFN,ZFN,Tulita Airport,NT,Canada,CA,64.9096984863,-125.5729980469
227,CYAY,YAY,St. Anthony Airport,NL,Canada,CA,51.3918991089,-56.0830993652
228,URKK,KRR,Krasnodar Airport,,Russia,RU,45.0346984863,39.170501709
229,SELO,LOH,Loja Airport,,Ecuador,EC,-3.9958899021,-79.3719024658
230,OMDB,DXB,Dubai Airport,,United Arab Emirates,AE,25.2527999878,55.3643989563
231,UUBA,KMW,Kostroma Airport,,Russia,RU,57.7969017029,41.0194015503
232,KJAX,JAX,Jacksonville International Airport,FL,United States of America,US,30.4940455555556,-81.6878466666667
233,HTDA,DAR,Dar es Salaam International Airport,,Tanzania,TZ,-6.8781099319,39.2025985718
234,UNKL,KJA,Krasnoyarsk Airport,,Russia,RU,56.1729011536,92.4933013916
235,ZSNJ,NKG,Nanjing Dajiaochang Airport,,China,CN,31.7420005798,118.8619995117
236,SKNV,NVA,Neiva Airport,,Colombia,CO,2.95015,-75.294
237,xxxx,xxx,Ridgeland Airport,SC,United States of America,US,32.49436,-80.98997
238,GATB,TOM,Tombouctou Airport,,Mali,ML,16.7304992676,-3.0075800419
239,KLWT,LWT,Lewistown Municipal Airport,MT,United States of America,US,47.04925,-109.466694444444
240,KBNA,BNA,Nashville Metropolitan Airport,TN,United States of America,US,36.124475,-86.6781805555556
241,UTSL,KSQ,Karshi Airport,,Uzbekistan,UZ,38.8335990906,65.9215011597
242,KFLL,FLL,Fort Lauderdale International Airport,FL,United States of America,US,26.0716666666667,-80.1496944444444
243,PANC,ANC,Anchorage International Airport,AK,United States of America,US,61.1740847222222,-149.9981375
244,OAKN,KDH,Kandahar Airport,,Afghanistan,AF,31.5058002472,65.8478012085
245,xxxx,xxx,Jenkinsburg,GA,United States of America,US,33.32404,-84.03474
246,UGKO,KUT,Kutaisi Airport,,Georgia,GE,42.176700592,42.4826011658
247,PANC,ANC,Anchorage International Airport,AK,United States of America,US,61.1740847222222,-149.9981375
248,PABE,BET,Bethel Airport,AK,United States of America,US,60.7785555555556,-161.837166666667
249,KMMU,MMU,Morristown Municipal Airport,NJ,United States of America,US,40.7993383333333,-74.4148886111111
250,xxxx,xxx,Molodezhnaya Ice Station,,Antarctica,AQ,-80.41318,20.67103
251,UWKS,CSY,Cheboksary Airport,,Russia,RU,56.0903015137,47.3473014832
252,PAAQ,PAQ,Palmer Municipal Airport,AK,United States of America,US,61.5949166666667,-149.088722222222
253,xxxx,xxx,Snegamook Lake,NL,Canada,CA,54.1105,-112.47574
254,UGGG,TBS,Tbilisi Airport,,Georgia,GE,41.6692008972,44.95470047
255,HECA,CAI,Cairo International Airport,,Egypt,EG,30.1219005585,31.4055995941
256,UWPP,PEZ,Penza Airport,,Russia,RU,53.1105995178,45.0210990906
257,KBYG,BYG,Buffalo Municipal Airport,WY,United States of America,US,44.3810833333333,-106.721805555556
258,KLIT,LIT,Little Rock National Airport,AR,United States of America,US,34.7294413888889,-92.2247772222222
259,OPKC,KHI,Karachi International Airport,,Pakistan,PK,24.9064998627,67.1607971191
260,FLBA,MMQ,Mbala Airport,,Zambia,ZM,-8.85916996,31.3363990784
261,OPLA,LHE,Lahore Airport,,Pakistan,PK,31.5216007233,74.4036026001
262,xxxx,SSB,Christiansted Harbor Seaplane Base,Saint Croix,U.S. Virgin Islands,VI,17.74672,-64.70418
263,xxxx,xxx,Elyria Airport,OH,United States of America,US,41.62239,-83.63362
264,NFNS,SVU,Savusavu Airport,,Fiji,FJ,-16.8027992249,179.341003418
265,KPIH,PIH,Pocatello Airport,ID,United States of America,US,42.9097925,-112.595918888889
266,CYTL,YTL,Big Trout Airport,ON,Canada,CA,53.8177986145,-89.8968963623
267,WAJW,WMX,Wamena Airport,,Indonesia,ID,-4.1025099754,138.9570007324
268,OAKN,KDH,Kandahar Airport,,Afghanistan,AF,31.5058002472,65.8478012085
269,VYHH,HEH,Heho Airport,,Myanmar,MM,20.7469997406,96.7919998169
270,KHWD,HWD,Hayward Air Terminal,CA,United States of America,US,37.6589285277778,-122.121737166667
271,VTSS,HDY,Hat Yai Airport,,Thailand,TH,6.9332098961,100.392997742
272,HECA,CAI,Cairo International Airport,,Egypt,EG,30.1219005585,31.4055995941
273,KMEM,MEM,Memphis International Airport,TN,United States of America,US,35.0424113888889,-89.9766791666667
274,KRIU,xxx,Rancho Murieta,CA,United States of America,US,38.4867777777778,-121.102777777778
275,EGNV,MME,Teesside International Airport,,United Kingdom,GB,54.5092010498,-1.4294099808
276,KOAK,OAK,Oakland International Airport,CA,United States of America,US,37.72125,-122.221138888889
277,KELP,ELP,El Paso International Airport,TX,United States of America,US,31.8073333333333,-106.376361111111
278,CYYE,YYE,Fort Nelson Airport,BC,Canada,CA,58.8363990784,-122.5970001221
279,PADQ,ADQ,Kodiak Airport,AK,United States of America,US,57.7497938888889,-152.493943611111
280,NZWN,WLG,Wellington International Airport,,New Zealand,NZ,-41.3272018433,174.804992676
281,CYBD,QBC,Bella Coola Airport,BC,Canada,CA,52.3875007629,-126.5960006714
282,KLAX,LAX,Los Angeles International Airport,CA,United States of America,US,33.9424963888889,-118.408048611111
283,KMEM,MEM,Memphis International Airport,TN,United States of America,US,35.0424113888889,-89.9766791666667
284,RCFN,TTT,Taitung Airport,,Taiwan,TW,22.7549991608,121.1019973755
285,USNN,NJC,Nizhnevartovsk Airport,,Russia,RU,60.9492988586,76.4835968018
286,EDDV,HAJ,Hannover Airport,,Germany,DE,52.461101532,9.6850795746
287,USTR,TJM,Tyumen Airport,,Russia,RU,57.1896018982,65.3243026733
288,HECA,CAI,Cairo International Airport,,Egypt,EG,30.1219005585,31.4055995941
289,FABL,BFN,Bloemfontein International Airport,,South Africa,ZA,-29.0926990509,26.302400589
290,xxxx,xxx,Muya Airport,,Russia,RU,68.78489,32.7596
291,PHTO,ITO,Hilo International Airport,HI,United States of America,US,19.720263,-155.048470138889
292,ENNM,OSY,Namsos Airport,,Norway,NO,64.4721984863,11.5785999298
293,KTEB,TEB,Teterboro Airport,NJ,United States of America,US,40.8501111111111,-74.0608333333333
294,EKBI,BLL,Billund Airport,,Denmark,DK,55.7402992249,9.1517801285
295,SARE,RES,Resistencia Airport,CH,Argentina,AR,-27.45,-59.0561
296,VYMK,MYT,Myitkyina Airport,,Myanmar,MM,25.383600235,97.3518981934
297,LFSB,BSL,Basel/Mulhouse Airport,,France,FR,47.5895996094,7.5299100876
298,OIKB,BND,Bandar Abbas Airport,,Iran,IR,27.2182998657,56.3777999878
299,KTUS,TUS,Tucson International Airport,AZ,United States of America,US,32.1160691666667,-110.941013888889
300,BGBW,UAK,Narsarsuaq Airport,,Greenland,GL,61.1604995728,-45.4259986877
301,OPBW,BHV,Bahawalpur Airport,,Pakistan,PK,29.3481006622,71.7180023193
302,UIKK,KCK,Kirensk Airport,,Russia,RU,57.7729988098,108.0640029907
303,UEKK,xxx,Zhigansk Airport,,Russia,RU,53.21378,34.1832
304,KDFW,DFW,Dallas/Fort Worth International Airport,TX,United States of America,US,32.8972330555556,-97.0376947222222
305,MMPN,UPN,Uruapan Airport,,Mexico,MX,19.3966999054,-102.0390014648
306,PASI,SIT,Sitka Airport,AK,United States of America,US,57.0468343611111,-135.361068694444
307,KJAC,JAC,Jackson Hole Airport,WY,United States of America,US,43.6073333333333,-110.73775
308,HABD,BJR,Bahar Dar Airport,,Ethiopia,ET,11.6080999374,37.3216018677
309,UEST,IKS,Tiksi Airport,,Russia,RU,71.6977005005,128.9029998779
310,xxxx,xxx,Linfen Air Base,,China,CN,39.90657,116.38765
311,CYRL,YRL,Red Lake Airport,ON,Canada,CA,51.0668983459,-93.7930984497
312,CYTS,YTS,Timmins Airport,ON,Canada,CA,48.5696983337,-81.376701355
313,xxxx,xxx,Hamada al Hamra Airfield,,Libya,LY,32.89534,13.18104
314,HTDA,DAR,Dar es Salaam International Airport,,Tanzania,TZ,-6.8781099319,39.2025985718
315,xxxx,WFB,Ketchikan Harbor Seaplane Base,AK,United States of America,US,56.01194,-132.82861
316,PHNL,HNL,Honolulu International Airport,HI,United States of America,US,21.3178172222222,-157.9202275
317,CYHD,YHD,Dryden Municipal Airport,ON,Canada,CA,49.8316993713,-92.7442016602
318,MMCT,CZA,Chichén Itzá Airport,,Mexico,MX,20.6413002014,-88.4461975098
319,KSMO,SMO,Santa Monica Airport,CA,United States of America,US,34.0158219444444,-118.451306111111
320,LRBO,xxx,Boboc Air Base,,Romania,RO,45.19704,26.97426
321,SKYP,EYP,El Yopal Airport,,Colombia,CO,5.31911,-72.384
322,OAKB,KBL,Kabul Airport,,Afghanistan,AF,34.5658988953,69.2123031616
323,CYVB,YVB,Bonaventure Airport,QC,Canada,CA,48.0710983276,-65.4602966309
324,HCMH,HGA,Hargeisa Airport,,Somalia,SO,9.5181703568,44.0887985229
325,UHMI,xxx,Mys Shmidta Airport,,Russia,RU,68.8683013916,-179.3730010986
326,NZAA,AKL,Auckland International Airport,,New Zealand,NZ,-37.0080986023,174.7920074463
327,LGTS,SKG,Thessaloniki International Airport,,Greece,GR,40.5196990967,22.9708995819
328,NZWF,WKA,Wanaka Airport,,New Zealand,NZ,-44.7221984863,169.2460021973
329,OPGT,GIL,Gilgit Airport,,Pakistan,PK,35.918800354,74.3336029053
330,KORL,ORL,Orlando Executive Airport,FL,United States of America,US,28.5454616666667,-81.33293
331,CYVR,YVR,Vancouver International Airport,BC,Canada,CA,49.193901062,-123.1839981079
332,KTPA,TPA,Tampa International Airport,FL,United States of America,US,27.9754722222222,-82.53325
333,xxxx,xxx,Uncertain,TX,United States of America,US,32.70703,-94.12094
334,LTAF,ADA,Adana Airport,,Turkey,TR,36.9822006226,35.2803993225
335,UWLL,ULV,Ulyanovsk/Baratayevka Airport,,Russia,RU,54.2682991028,48.2266998291
336,PHOG,OGG,Kahului Airport,HI,United States of America,US,20.8986486111111,-156.430458611111
337,ENTC,TOS,Tromsø/Langnes Airport,,Norway,NO,69.6832962036,18.9188995361
338,USPP,PEE,Perm Airport,,Russia,RU,57.9145011902,56.0211982727
339,UADD,DMB,Dzhambul Airport,,Kazakhstan,KZ,42.8535995483,71.3035964966
340,FZSA,KMN,Kamina Airport,,Democratic Republic of the Congo,CD,-8.6420202255,25.2528991699
341,KBID,BID,Block Island Airport,RI,United States of America,US,41.1681111111111,-71.5778333333333
342,USTR,TJM,Tyumen Airport,,Russia,RU,57.1896018982,65.3243026733
343,KDEN,DEN,Denver International Airport,CO,United States of America,US,39.8616666666667,-104.673166666667
344,KBTV,BTV,Burlington International Airport,VT,United States of America,US,44.471955,-73.1532761111111
345,RPLL,MNL,Manila International Airport,,Philippines,PH,14.508600235,121.019996643
346,CYTS,YTS,Timmins Airport,ON,Canada,CA,48.5696983337,-81.376701355
347,YBPN,PPP,Prosperine Airport,QLD,Australia,AU,-20.4950008392,148.552001953
348,RPLL,MNL,Manila International Airport,,Philippines,PH,14.508600235,121.019996643
349,xxxx,xxx,Thistle Lake,NT,Canada,CA,45.42178,-75.69117
350,MKJP,KIN,Kingston Airport,,Jamaica,JM,17.9356994629,-76.7874984741
351,KABQ,ABQ,Albuquerque International Airport,NM,United States of America,US,35.0389315555556,-106.608262166667
352,BIKF,KEF,Keflavík International Airport,,Iceland,IS,63.9850006104,-22.6056003571
353,KLAX,LAX,Los Angeles International Airport,CA,United States of America,US,33.9424963888889,-118.408048611111
354,CYDP,YDP,Nain Airport,NL,Canada,CA,56.5491981506,-61.6803016663
355,SEMC,XMS,Macas Airport,,Ecuador,EC,-2.2991700172,-78.1207962036
356,SBUR,UBA,Uberaba Airport,MG,Brazil,BR,-19.7647228241,-47.9661102295
357,xxxx,YTC,Sturdee Airport,BC,Canada,CA,49.15478,-121.94969
358,NTMN,HIX,Hiva Oa Airport,,French Polynesia,PF,-9.7687902451,-139.0110015869
359,EDDK,CGN,Köln/Bonn Airport,,Germany,DE,50.8658981323,7.1427397728
360,CYRC,xxx,Chicoutimi St Honoré Airport,QC,Canada,CA,48.5208015442,-71.0505981445
361,SPBL,BLP,Bellavista Airport,,Peru,PE,-7.0605602264,-76.5821990967
362,KMOB,MOB,Mobile Municipal Airport,AL,United States of America,US,30.6914166666667,-88.2428333333333
363,USHU,URJ,Uraj Airport,,Russia,RU,60.1032981873,64.8266983032
364,DNKN,KAN,Kano International Airport,,Nigeria,NG,12.0475997925,8.5246200562
365,WAOS,SMQ,Sampit Airport,,Indonesia,ID,-2.4991900921,112.9749984741
366,WBGZ,BBN,Bario Airport,,Malaysia,MY,3.7338900566,115.4789962769
367,UERL,ULK,Lensk Airport,,Russia,RU,60.7206001282,114.825996399
368,WAOP,PKY,Palangkaraya Airport,,Indonesia,ID,-2.2251300812,113.9430007935
369,URWI,ESL,Elista Airport,,Russia,RU,46.3739013672,44.3308982849
370,USNN,NJC,Nizhnevartovsk Airport,,Russia,RU,60.9492988586,76.4835968018
371,EDFE,xxx,Egelsbach Airfield,,Germany,DE,49.9599990845,8.6458330154
372,UESO,CKH,Chokurdah Airport,,Russia,RU,70.6231002808,147.9019927979
373,RCLY,KYD,Orchid Island Airport,,Taiwan,TW,22.0270004272,121.5350036621
374,AYMD,MAG,Madang Airport,,Papua New Guinea,PG,-5.2070798874,145.789001465
375,xxxx,xxx,Perris Valley Airport,CA,United States of America,US,33.8648,-117.25618
376,SKCL,CLO,Cali Airport,,Colombia,CO,3.54322,-76.3816
377,KSBM,SBM,Sheboygan Memorial Airport,WI,United States of America,US,43.7697777777778,-87.8517222222222
378,UOII,IAA,Igarka Airport,,Russia,RU,67.4372024536,86.6219024658
379,PABE,BET,Bethel Airport,AK,United States of America,US,60.7785555555556,-161.837166666667
380,ZSNJ,NKG,Nanjing Dajiaochang Airport,,China,CN,31.7420005798,118.8619995117
381,UKCC,DOK,Donetsk Airport,,Ukraine,UA,48.073600769,37.7397003174
382,GYGM,YGM,Gimli Airport,MB,Canada,CA,50.6281013489,-97.043296814
383,SPQT,IQT,Iquitos Airport,,Peru,PE,-3.7847399712,-73.3087997437
384,SPST,TPP,Tarapoto Airport,,Peru,PE,-6.5087399483,-76.3731994629
385,KSCK,SCK,Stockton Airport,CA,United States of America,US,37.8944102777778,-121.23874
386,MMPN,UPN,Uruapan Airport,,Mexico,MX,19.3966999054,-102.0390014648
387,KDAY,DAY,Dayton Airport,OH,United States of America,US,39.9022522222222,-84.2194122222222
388,FZOA,KND,Kindu Airport,,Democratic Republic of the Congo,CD,-2.9191799164,25.9153995514
389,EGMC,SEN,Southend Municipal Airport,,United Kingdom,GB,51.5713996887,0.695555985
390,FNUE,LUO,Luena Airport,,Angola,AO,-11.7680997849,19.8976993561
391,MMUN,CUN,Cancún Airport,,Mexico,MX,21.0365009308,-86.8770980835
392,CZVL,xxx,Edmonton/Villeneuve Airport,AB,Canada,CA,53.6674995422,-113.853996277
393,EDDK,CGN,Köln/Bonn Airport,,Germany,DE,50.8658981323,7.1427397728
394,WBGO,BKM,Ba'kelalan Airport,,Malaysia,MY,3.1500000954,115.233001709
395,LGEL,xxx,Elefsis Air Base,,Greece,GR,38.0638008118,23.5559997559
396,xxxx,xxx,Uchur,,Russia,RU,45.41621,43.42122
397,UTOD,xxx,Khorog Airport,,Tajikistan,TJ,37.502222,71.513333
398,xxxx,xxx,Hut Bay,,India,IN,10.93814,92.95856
399,KOKV,xxx,Winchester Regional Airport,VA,United States of America,US,39.1435277777778,-78.1444444444444
400,CZSJ,ZSJ,Sandy Lake Airport,ON,Canada,CA,53.064201355,-93.3443984985
401,OMDB,DXB,Dubai Airport,,United Arab Emirates,AE,25.2527999878,55.3643989563
402,CYUB,YUB,Tuktoyaktuk Airport,NT,Canada,CA,69.4332962036,-133.0260009766
403,LEAP,xxx,Ampuriabrava Airport,,Spain,ES,42.2599983215,3.109721899
404,CYEG,YEG,Edmonton International Airport,AB,Canada,CA,53.3097000122,-113.580001831
405,URWW,VOG,Volgograd Airport,,Russia,RU,48.7825012207,44.345500946
406,YARM,ARM,Armidale Airport,NSW,Australia,AU,-30.5280990601,151.617004395
407,xxxx,xxx,Key West Harbor,FL,United States of America,US,24.56122,-81.8014
408,KGEG,GEG,Spokane International Airport,WA,United States of America,US,47.6190277777778,-117.535222222222
409,YBWP,WEI,Weipa Airport,QLD,Australia,AU,-12.6786003113,141.925003052
410,RJOB,OKJ,Okayama Airport,,Japan,JP,34.7569007874,133.854995728
411,HTDA,DAR,Dar es Salaam International Airport,,Tanzania,TZ,-6.8781099319,39.2025985718
412,SBIH,ITB,Itaituba Airport,PA,Brazil,BR,-4.2423400879,-56.0007019043
413,MMLC,LZC,Lázaro Cárdenas Airport,,Mexico,MX,18.0016994476,-102.221000671
414,GQNN,NKC,Nouakchott Airport,,Mauritania,MR,18.0981998444,-15.9484996796
415,KMSO,MSO,Missoula Airport,MT,United States of America,US,46.9163055555556,-114.090555555556
416,LQCO,xxx,Coralici Airport,,Bosnia and Herzegovina,BA,44.98289,15.88702
417,xxxx,xxx,Fish Egg Inlet,BC,Canada,CA,49.28514,-122.95352
418,SNOU,FEJ,Feijó Airport,AC,Brazil,BR,-8.140832901,-70.3472213745
419,UNKL,KJA,Krasnoyarsk Airport,,Russia,RU,56.1729011536,92.4933013916
420,UHMG,xxx,Chaybukha,,Russia,RU,61.8349990845,160.5480041504
421,URML,MCX,Makhachkala Airport,,Russia,RU,42.8167991638,47.6523017883
422,UEBB,BQJ,Batagay Airport,,Russia,RU,67.6480026245,134.6950073242
423,WABI,NBX,Nabire Airport,,Indonesia,ID,-3.3681800365,135.4960021973
424,SPRU,TRU,Trujillo Airport,,Peru,PE,-8.081410408,-79.1088027954
425,KBUR,BUR,Burbank/Glendale/Pasadena Airport,CA,United States of America,US,34.2006944444444,-118.358666666667
426,AYSO,SBC,Selbang Airport,,Papua New Guinea,PG,-9.45508,147.20381
427,AYTB,TBG,Tabubil Airport,,Papua New Guinea,PG,-5.2786102295,141.2259979248
428,FAJS,JNB,Johannesburg International Airport,,South Africa,ZA,-26.133667,28.242333
429,WADB,BMU,Bima Airport,,Indonesia,ID,-8.5396499634,118.68699646
430,CYVR,YVR,Vancouver International Airport,BC,Canada,CA,49.193901062,-123.1839981079
431,UNKL,KJA,Krasnoyarsk Airport,,Russia,RU,56.1729011536,92.4933013916
432,FNCF,CFF,Cafunfo Airport,,Angola,AO,-8.7836103439,17.9897003174
433,KSMF,SMF,Sacramento Metropolitan Airport,CA,United States of America,US,38.6954444444444,-121.590777777778
434,CYRL,YRL,Red Lake Airport,ON,Canada,CA,51.0668983459,-93.7930984497
435,xxxx,xxx,Sibay Airport,,Russia,RU,43.44806,39.93555
436,NZAA,AKL,Auckland International Airport,,New Zealand,NZ,-37.0080986023,174.7920074463
437,xxxx,xxx,Herpuchi,,Russia,RU,52.98353,138.83361
438,FNGI,VPE,Ondjiva Airport,,Angola,AO,-17.0435009003,15.6837997437
439,MMCN,CEN,Ciudad Obregón Airport,,Mexico,MX,27.3925991058,-109.8330001831
440,KELM,ELM,Elmira Regional Airport,NY,United States of America,US,42.1598561388889,-76.8917456666667
441,OAKB,KBL,Kabul Airport,,Afghanistan,AF,34.5658988953,69.2123031616
442,WBKK,BKI,Kota Kinabalu Airport,,Malaysia,MY,5.937210083,116.0510025024
443,YSTW,TMW,Tamworth Airport,NSW,Australia,AU,-31.0839004517,150.847000122
444,xxxx,xxx,Triumph Bay,BC,Canada,CA,49.28387,-123.0458
445,USTR,TJM,Tyumen Airport,,Russia,RU,57.1896018982,65.3243026733
446,MMIO,SLW,Saltillo Airport,,Mexico,MX,25.5494995117,-100.9290008545
447,DNJO,JOS,Jos Airport,,Nigeria,NG,9.6398296356,8.8690500259
448,DBBB,COO,Cotonou Airport,,Benin,BJ,6.3572301865,2.3843500614
449,AYMD,MAG,Madang Airport,,Papua New Guinea,PG,-5.2070798874,145.789001465
450,KDSM,DSM,Des Moines Airport,IA,United States of America,US,41.5339727777778,-93.6630722222222
451,SPGU,xxx,Bagua Airport,,Peru,PE,-5.6347222328,-78.5305557251
452,HTDA,DAR,Dar es Salaam International Airport,,Tanzania,TZ,-6.8781099319,39.2025985718
453,CYDQ,YDQ,Dawson Creek Airport,BC,Canada,CA,55.7422981262,-120.1829986572
454,xxxx,MYX,Menyamya Airport,,Papua New Guinea,PG,-7.2116666667,146.019361111
455,EGPE,INV,Inverness Airport,,United Kingdom,GB,57.5424995422,-4.0475001335
456,ZYTL,DLC,Dalian Airport,,China,CN,38.9656982422,121.5390014648
457,DIYO,ASK,Yamoussoukro Airport,,Cote d'Ivoire,CI,6.9031701088,-5.3655800819
458,xxxx,xxx,Bosavi Airstrip,,Papua New Guinea,PG,-9.45508,147.20381
459,PAEM,EMK,Emmonak Airport,AK,United States of America,US,62.7861388888889,-164.49075
460,CYFB,YFB,Iqaluit Airport,NU,Canada,CA,63.756401062,-68.5558013916
461,xxxx,YBM,Bronson Creek Airport,BC,Canada,CA,55.73842,-120.18551
462,xxxx,YTU,Tasu Airport,BC,Canada,CA,49.15478,-121.94969
463,xxxx,xxx,Bahía Tortugas Airfield,,Mexico,MX,27.64386,-113.39289
464,SEMT,MEC,Manta Airport,,Ecuador,EC,-0.9460780025,-80.6788024902
465,xxxx,xxx,Most Pyssa Airfield,,Russia,RU,55.75696,37.61502
466,PABE,BET,Bethel Airport,AK,United States of America,US,60.7785555555556,-161.837166666667
467,PASM,xxx,St. Mary's,AK,United States of America,US,62.0608308333333,-163.301836388889
468,DNJO,JOS,Jos Airport,,Nigeria,NG,9.6398296356,8.8690500259
469,SBMA,MAB,Marabá Airport,PA,Brazil,BR,-5.3685898781,-49.1380004883
470,URMT,STW,Stavropol Airport,,Russia,RU,45.1091995239,42.1128005981
471,xxxx,NUP,Nunapitchuk Airport,AK,United States of America,US,60.90267,-162.44455
472,UBBG,KVD,Gyandzha Airport,,Azerbaijan,AZ,40.738833,46.32
473,KELP,ELP,El Paso International Airport,TX,United States of America,US,31.8073333333333,-106.376361111111
474,FZKA,BUX,Bunia Airport,,Democratic Republic of the Congo,CD,1.5657199621,30.2208003998
475,UUWV,TYA,Tula Airport,,Russia,RU,54.239,37.6
476,VTSP,HKT,Phuket International Airport,,Thailand,TH,8.1132001877,98.3169021606
477,KAHN,AHN,Athens Airport,GA,United States of America,US,33.9486402777778,-83.3259141666667
478,KMTJ,MTJ,Montrose County Airport,CO,United States of America,US,38.5098055555556,-107.89425
479,KMSL,MSL,Muscle Shoals Airport,AL,United States of America,US,34.7453055555556,-87.6102222222222
480,CYWG,YWG,Winnipeg International Airport,MB,Canada,CA,49.9099998474,-97.2398986816
481,UTDD,DYU,Dushanbe Airport,,Tajikistan,TJ,38.5433006287,68.8249969482
482,VYTD,SNW,Thandwe Airport,,Myanmar,MM,18.4606990814,94.3001022339
483,RCPO,HSZ,Hsinchu Airport,,Taiwan,TW,24.8180007935,120.9390029907
484,OAKN,KDH,Kandahar Airport,,Afghanistan,AF,31.5058002472,65.8478012085
485,SPME,TBP,Tumbes Airport,,Peru,PE,-3.5525300503,-80.381401062
486,xxxx,ERT,Erdenet Airport,,Mongolia,MN,47.71811,107.79312
487,OMRK,RKT,Ras Al Khaimah International Airport,,United Arab Emirates,AE,25.6135005951,55.9388008118
488,VOCC,COK,Cochin Airport,,India,IN,9.9473896027,76.2731018066
489,HUEN,EBB,Entebbe Airport,,Uganda,UG,0.0423859991,32.4435005188
490,LEMG,AGP,Málaga Airport,,Spain,ES,36.6749000549,-4.4991102219
491,SVCN,CAJ,Canaima Airport,,Venezuela,VE,6.2319889069,-62.8544311523
492,xxxx,PKJ,Playa Grande Airport,,Guatemala,GT,15.9975004196,-90.7416992188
493,CYVR,YVR,Vancouver International Airport,BC,Canada,CA,49.193901062,-123.1839981079
494,EGJB,GCI,Guernsey Airport,Channel Islands,United Kingdom,GB,49.4350013733,-2.6019699574
495,KMEZ,xxx,Mena Intermountain Municipal Airport,AR,United States of America,US,34.54551175,-94.2024164722222
496,CYBC,YBC,Baie Comeau Airport,QC,Canada,CA,49.1324996948,-68.2043991089
497,CYVR,YVR,Vancouver International Airport,BC,Canada,CA,49.193901062,-123.1839981079
498,YHID,HID,Horn Island Airport,QLD,Australia,AU,-10.586400032,142.289993286
499,VNJL,JUM,Jumla Airport,,Nepal,NP,29.2742004395,82.1932983398
500,AYHK,HKN,Hoskins Airport,,Papua New Guinea,PG,-5.4621701241,150.4049987793
501,KTPH,TPH,Tonopah Airport,NV,United States of America,US,38.0598936111111,-117.086600833333
502,ZUUU,CTU,Chengdu Airport,,China,CN,30.5785007477,103.9469985962
503,CYYR,YYR,Goose Bay Airport,NL,Canada,CA,53.3191986084,-60.4258003235
504,xxxx,xxx,Ol Kiombo,,Kenya,KE,-1.28353,36.82379
505,KDFW,DFW,Dallas/Fort Worth International Airport,TX,United States of America,US,32.8972330555556,-97.0376947222222
506,xxxx,xxx,Long Haul Lake,MB,Canada,CA,50.87301,-95.38168
507,RPLL,MNL,Manila International Airport,,Philippines,PH,14.508600235,121.019996643
508,CYNL,YNL,Points North Landing Airport,SK,Canada,CA,58.2766990662,-104.0820007324
509,xxxx,xxx,Estancia Las Cruces,ER,Argentina,AR,-34.6085,-58.37344
510,PHOG,OGG,Kahului Airport,HI,United States of America,US,20.8986486111111,-156.430458611111
511,FOOL,LBV,Libreville Airport,,Gabon,GA,0.4586000144,9.4122800827
512,ZHES,ENH,Enshi Airport,,China,CN,30.3202991486,109.48500061
513,VNBG,BJH,Bajhang Airport,,Nepal,NP,29.5389995575,81.1854019165
514,CYZW,YZW,Teslin Airport,YT,Canada,CA,60.1727981567,-132.7429962158
515,HECA,CAI,Cairo International Airport,,Egypt,EG,30.1219005585,31.4055995941
516,YPPH,PER,Perth Airport,WA,Australia,AU,-31.9402999878,115.9670028687
517,CYCO,YCO,Kugluktuk Airport,NU,Canada,CA,67.8167037964,-115.143997192
518,LEMG,AGP,Málaga Airport,,Spain,ES,36.6749000549,-4.4991102219
519,PANO,NNL,Nondalton Airport,AK,United States of America,US,59.9802302777778,-154.839174722222
520,KPWM,PWM,Portland Airport,ME,United States of America,US,43.6456435,-70.3086163611111
521,EGLK,BBS,Blackbushe Airport,,United Kingdom,GB,51.3238983154,-0.8475000262
522,SYKT,KTO,Kato Airport,,Guyana,GY,4.6491599083,-59.8321990967
523,PADU,DUT,Unalaska Airport,AK,United States of America,US,53.8989444444444,-166.545027777778
524,SVCB,CBL,Ciudad Bolívar Airport,,Venezuela,VE,8.1221609116,-63.5369567871
525,SKYP,EYP,El Yopal Airport,,Colombia,CO,5.31911,-72.384
526,KLAX,LAX,Los Angeles International Airport,CA,United States of America,US,33.9424963888889,-118.408048611111
527,SADF,xxx,San Fernando Airport,BA,Argentina,AR,-34.4532,-58.5896
528,xxxx,xxx,Ballieston East,VIC,Australia,AU,-36.78179,145.11446
529,UUMU,CKL,Chkalovsky Airport,,Russia,RU,55.8782997131,38.0616989136
530,BIKF,KEF,Keflavík International Airport,,Iceland,IS,63.9850006104,-22.6056003571
531,xxxx,xxx,Kama,,Democratic Republic of the Congo,CD,-3.6457,26.66279
532,GEML,MLN,Melilla Airport,,Spain,ES,35.279800415,-2.9562599659
533,KEWR,EWR,Newark International Airport,NJ,United States of America,US,40.6924798333333,-74.1686867777778
534,MMCT,CZA,Chichén Itzá Airport,,Mexico,MX,20.6413002014,-88.4461975098
535,PADL,DLG,Dillingham Municipal Airport,AK,United States of America,US,59.0446666666667,-158.5055
536,CYGO,YGO,Gods Lake Narrows Airport,MB,Canada,CA,54.5588989258,-94.4914016724
537,KPIT,PIT,Pittsburgh International Airport,PA,United States of America,US,40.4914166666667,-80.2326944444444
538,KLIT,LIT,Little Rock National Airport,AR,United States of America,US,34.7294413888889,-92.2247772222222
539,YPAD,ADL,Adelaide Airport,SA,Australia,AU,-34.9449996948,138.5310058594
540,FZKA,BUX,Bunia Airport,,Democratic Republic of the Congo,CD,1.5657199621,30.2208003998
541,EDWB,BRV,Bremerhaven Airport,,Germany,DE,53.506942749,8.5727777481
542,EGBB,BHX,Birmingham International Airport,,United Kingdom,GB,52.4538993835,-1.7480299473
543,MUCF,CFG,Cienfuegos Airport,,Cuba,CU,22.1499996185,-80.4141998291
544,DNPO,PHC,Port Harcourt Airport,,Nigeria,NG,5.0154900551,6.9495902061
545,WABI,NBX,Nabire Airport,,Indonesia,ID,-3.3681800365,135.4960021973
546,FABL,BFN,Bloemfontein International Airport,,South Africa,ZA,-29.0926990509,26.302400589
547,VNJL,JUM,Jumla Airport,,Nepal,NP,29.2742004395,82.1932983398
548,VNJS,JMO,Jomsom Airport,,Nepal,NP,28.780426,83.723
549,xxxx,xxx,Poliny Osipenko,,Russia,RU,56.15178,40.41398
550,ZUXC,XIC,Xichang Airport,,China,CN,27.9890995026,102.1839981079
551,xxxx,xxx,Lake de l'Avion,QC,Canada,CA,45.67923,-76.20314
552,xxxx,xxx,Gohu Airstrip,,Papua New Guinea,PG,-9.45508,147.20381
553,xxxx,xxx,Borki Airport,,Russia,RU,54.88211,20.58623
554,xxxx,xxx,Larandia Air Base,,Colombia,CO,4.61496,-74.06942
555,WABQ,LII,Mulia Airport,,Indonesia,ID,-3.7094700336,137.9759979248
556,xxxx,TUY,Tulum Airport,,Mexico,MX,19.43195,-99.13315
557,KSAT,SAT,San Antonio International Airport,TX,United States of America,US,29.5339583333333,-98.4690569444444
558,CYXC,YXC,Cranbrook Airport,BC,Canada,CA,49.6108016968,-115.7819976807
559,SBLN,LIP,Lins Airport,SP,Brazil,BR,-21.6639995575,-49.7304992676
560,CYPL,YPL,Pickle Lake Airport,ON,Canada,CA,51.4463996887,-90.2142028809
561,LPFU,FNC,Funchal Airport,,Portugal,PT,32.6978988647,-16.7744998932
562,KELP,ELP,El Paso International Airport,TX,United States of America,US,31.8073333333333,-106.376361111111
563,KPRC,PRC,Prescott Airport,AZ,United States of America,US,34.6548333333333,-112.419222222222
564,NZCH,CHC,Christchurch International Airport,,New Zealand,NZ,-43.4893989563,172.5319976807
565,xxxx,xxx,Maconacon Airport,,Philippines,PH,17.38769,122.2404
566,SKYP,EYP,El Yopal Airport,,Colombia,CO,5.31911,-72.384
567,DBBB,COO,Cotonou Airport,,Benin,BJ,6.3572301865,2.3843500614
568,UTST,TMJ,Termez Airport,,Uzbekistan,UZ,37.2867012024,67.3099975586
569,CYPT,xxx,Pelee Island,ON,Canada,CA,41.7803993225,-82.6780014038
570,OIBK,KIH,Kish Island Airport,,Iran,IR,26.5261993408,53.9802017212
571,LWSK,SKP,Skopje Airport,,North Macedonia,MK,41.9616012573,21.6214008331
572,SVCB,CBL,Ciudad Bolívar Airport,,Venezuela,VE,8.1221609116,-63.5369567871
573,xxxx,xxx,Jiech,,South Sudan,SS,4.83975,31.59758
574,HSSJ,JUB,Juba Airport,,South Sudan,SS,4.872010231,31.6011009216
575,FOOL,LBV,Libreville Airport,,Gabon,GA,0.4586000144,9.4122800827
576,KMEM,MEM,Memphis International Airport,TN,United States of America,US,35.0424113888889,-89.9766791666667
577,FZNA,GOM,Goma Airport,,Democratic Republic of the Congo,CD,-1.6708099842,29.2385005951
578,PAMC,MCG,McGrath Airport,AK,United States of America,US,62.9527839166667,-155.607048055556
579,HSOB,EBD,El Obeid Airport,,Sudan,SD,13.1532001495,30.2327003479
580,CYHZ,YHZ,Halifax International Airport,NS,Canada,CA,44.8807983398,-63.5085983276
581,xxxx,XCN,Coron Airport,,Philippines,PH,9.65657,123.8523
582,EGPO,SYY,Stornoway Airport,,United Kingdom,GB,58.2155990601,-6.3311100006
583,UNIW,xxx,Vanavara,,Russia,RU,60.3596992493,102.3239974976
584,KBGR,BGR,Bangor International Airport,ME,United States of America,US,44.8074444444444,-68.8281388888889
585,KCOU,COU,Columbia Regional Airport,MO,United States of America,US,38.8177355555556,-92.2177922222222
586,AYTB,TBG,Tabubil Airport,,Papua New Guinea,PG,-5.2786102295,141.2259979248
587,MMTO,TLC,Toluca Airport,,Mexico,MX,19.3370990753,-99.5660018921
588,KCIC,CIC,Chico Airport,CA,United States of America,US,39.7953888888889,-121.858416666667
589,FZNA,GOM,Goma Airport,,Democratic Republic of the Congo,CD,-1.6708099842,29.2385005951
590,CYVR,YVR,Vancouver International Airport,BC,Canada,CA,49.193901062,-123.1839981079
591,UHBP,xxx,Ekimchan,,Russia,RU,53.0760993958,132.9510040283
592,DNKA,KAD,Kaduna Airport,,Nigeria,NG,10.6960000992,7.3201098442
593,DNAA,ABV,Abuja International Airport,,Nigeria,NG,9.0067901611,7.2631697655
594,KTWF,TWF,Twin Falls City County Airport,ID,United States of America,US,42.4818091666667,-114.487736111111
595,CYAZ,YAZ,Tofino Airport,BC,Canada,CA,49.0798255464,-125.775604248
596,KHLN,HLN,Helena Airport,MT,United States of America,US,46.6067222222222,-111.983277777778
597,SECU,CUE,Cuenca Airport,,Ecuador,EC,-2.8894701004,-78.9843978882
598,KTRM,TRM,Thermal Airport,CA,United States of America,US,33.6266705555556,-116.159654444444
599,xxxx,xxx,Kozlovets,,Bulgaria,BG,43.50803,25.36324
600,UDYZ,EVN,Yerevan Airport,,Armenia,AM,40.1473007202,44.3959007263
601,CYVC,YVC,La Ronge Airport,SK,Canada,CA,55.1514015198,-105.2620010376
602,FPST,TMS,São Tomé Island Airport,,São Tomé and Príncipe,ST,0.3781749904,6.7121500969
603,xxxx,xxx,Taiynsha  Airport,,Kazakhstan,KZ,51.12771,71.4283
604,VNSK,SKH,Surkhet Airport,,Nepal,NP,28.5860004425,81.6360015869
605,OPMT,MUX,Multan Airport,,Pakistan,PK,30.2031993866,71.4190979004
606,OIKB,BND,Bandar Abbas Airport,,Iran,IR,27.2182998657,56.3777999878
607,DNAA,ABV,Abuja International Airport,,Nigeria,NG,9.0067901611,7.2631697655
608,WABQ,LII,Mulia Airport,,Indonesia,ID,-3.7094700336,137.9759979248
609,CYVC,YVC,La Ronge Airport,SK,Canada,CA,55.1514015198,-105.2620010376
610,LTAF,ADA,Adana Airport,,Turkey,TR,36.9822006226,35.2803993225
611,MBNC,NCA,North Caicos Airport,,Turks and Caicos Islands,TC,21.9174995422,-71.9395980835
612,FZNA,GOM,Goma Airport,,Democratic Republic of the Congo,CD,-1.6708099842,29.2385005951
613,USRR,SGC,Surgut Airport,,Russia,RU,61.3437004089,73.401802063
614,SYKT,KTO,Kato Airport,,Guyana,GY,4.6491599083,-59.8321990967
615,xxxx,xxx,Walikale Airstrip,,Democratic Republic of the Congo,CD,-1.42536,28.07298
616,SPON,xxx,Orellana Airport,,Peru,PE,-6.8967499733,-75.1521987915
617,EIMN,IIA,Inishmaan Airport,,Ireland,IE,53.0929985046,-9.5680599213
618,FZRQ,KOO,Kongolo Airport,,Democratic Republic of the Congo,CD,-5.3944401741,26.9899997711
619,HUEN,EBB,Entebbe Airport,,Uganda,UG,0.0423859991,32.4435005188
620,KCNO,CNO,Chino Airport,CA,United States of America,US,33.9747793055556,-117.636482833333
621,xxxx,xxx,Sentvid Pri Sticni Field Airport,,Slovenia,SI,45.95362,14.83864
622,PHNL,HNL,Honolulu International Airport,HI,United States of America,US,21.3178172222222,-157.9202275
623,FNLU,LAD,Luanda Airport,,Angola,AO,-8.8583698273,13.2312002182
624,KAUG,AUG,Augusta State Airport,ME,United States of America,US,44.3206497222222,-69.7973180555556
625,HTMW,MWZ,Mwanza Airport,,Tanzania,TZ,-2.4444899559,32.9327011108
626,LUKK,KIV,Chisinau Airport,,Moldova,MD,46.9277000427,28.9309997559
627,USCC,CEK,Chelyabinsk Airport,,Russia,RU,55.3058013916,61.5032997131
628,KACY,ACY,Atlantic City International Airport,NJ,United States of America,US,39.4575833333333,-74.5771666666667
629,SBBU,BAU,Bauru Airport,SP,Brazil,BR,-22.3449993134,-49.0537986755
630,ORAA,IQA,Al Asad Air Base,,Iraq,IQ,33.7855987549,42.4412002563
631,HELX,LXR,Luxor Airport,,Egypt,EG,25.670999527,32.7066001892
632,HUEN,EBB,Entebbe Airport,,Uganda,UG,0.0423859991,32.4435005188
633,RPUT,TUG,Tuguegarao Airport,,Philippines,PH,17.6433676823,121.733150482
634,SVCN,CAJ,Canaima Airport,,Venezuela,VE,6.2319889069,-62.8544311523
635,KMSO,MSO,Missoula Airport,MT,United States of America,US,46.9163055555556,-114.090555555556
636,UERL,ULK,Lensk Airport,,Russia,RU,60.7206001282,114.825996399
637,xxxx,DEK,Dekai Airport,,Indonesia,ID,-6.96568,110.37766
638,VTSG,KBV,Krabi Airport,,Thailand,TH,8.0991201401,98.9861984253
639,WMBI,TPG,Taiping Airport,,Malaysia,MY,4.867000103,100.7170028687
640,xxxx,xxx,Umgalala Airstrip,,Sudan,SD,15.58651,32.52318
641,UERR,MJZ,Mirny Airport,,Russia,RU,62.5346984863,114.0390014648
642,YPDN,DRW,Darwin Airport,NT,Australia,AU,-12.4146995544,130.8769989014
643,OAUZ,UND,Kunduz Airport,,Afghanistan,AF,36.6651000977,68.9107971191
644,xxxx,xxx,Taiynsha  Airport,,Kazakhstan,KZ,51.12771,71.4283
645,CYKA,YKA,Kamloops Airport,BC,Canada,CA,50.7022018433,-120.4440002441
646,FZBS,xxx,Semendwa Airport,,Democratic Republic of the Congo,CD,-3.1830000877,18.0830001831
647,KLGB,LGB,Long Beach Municipal Airport,CA,United States of America,US,33.8179297222222,-118.151890555556
648,ZWKL,KRL,Korla Airport,,China,CN,41.6977996826,86.1288986206
649,CYMA,YMA,Mayo Airport,YT,Canada,CA,63.6164016724,-135.8679962158
650,CYXE,YXE,Saskatoon Airport,SK,Canada,CA,52.1707992554,-106.6999969482
651,KROW,ROW,Roswell International Air Center Airport,NM,United States of America,US,33.2998696666667,-104.529397638889
652,SAZN,NQN,Neuquén Airport,NE,Argentina,AR,-38.9490013123,-68.1557006836
653,ZCFG,XPK,Pukatawagan Airport,MB,Canada,CA,55.7491989136,-101.2659988403
654,CYZF,YZF,Yellowknife Airport,NT,Canada,CA,62.4627990723,-114.4400024414
655,xxxx,xxx,Baranikovsky Airfield,,Russia,RU,45.34574,38.02615
656,PAOO,OOK,Toksook Bay Airport,AK,United States of America,US,60.5413333333333,-165.087194444444
657,WAJW,WMX,Wamena Airport,,Indonesia,ID,-4.1025099754,138.9570007324
658,xxxx,xxx,Thor Lake,NT,Canada,CA,47.12725,-81.28083
659,xxxx,OLH,Old Harbor Airport,AK,United States of America,US,57.20367,-153.3045
660,CYZF,YZF,Yellowknife Airport,NT,Canada,CA,62.4627990723,-114.4400024414
661,xxxx,xxx,Xakanaka Airstrip,,Botswana,BW,-24.65528,25.91903
662,CYVR,YVR,Vancouver International Airport,BC,Canada,CA,49.193901062,-123.1839981079
663,WABI,NBX,Nabire Airport,,Indonesia,ID,-3.3681800365,135.4960021973
664,VNPK,PKR,Pokhara Airport,,Nepal,NP,28.2008991241,83.9821014404
665,KCDC,CDC,Cedar City Airport,UT,United States of America,US,37.70097,-113.098850833333
666,UKKB,xxx,Borodyanka Airfield,,Ukraine,UA,50.64637,29.94203
667,ZWTN,HTN,Hotan Airport,,China,CN,37.0385017395,79.8648986816
668,xxxx,xxx,Bolshoe Gryzlovo Airport,,Russia,RU,54.8045,37.62952
669,xxxx,xxx,Snow Lake Airport,MB,Canada,CA,54.87465,-100.01449
670,xxxx,xxx,Coolidge Municipal Airport,AZ,United States of America,US,33.44825,-112.07581
671,CYWG,YWG,Winnipeg International Airport,MB,Canada,CA,49.9099998474,-97.2398986816
672,VYMD,MDL,Mandalay International Airport,,Myanmar,MM,21.7021999359,95.977897644
673,UACK,KOV,Kokshetau Airport,,Kazakhstan,KZ,53.3291015625,69.5945968628
674,FZVA,LJA,Lodja Airport,,Democratic Republic of the Congo,CD,-3.4170000553,23.4500007629
675,PAKN,AKN,King Salmon Airport,AK,United States of America,US,58.6764934722222,-156.648691
676,xxxx,xxx,Tash Kumyr Airstrip,,Kyrgyzstan,KG,41.18545,72.17616
677,FTTD,MQQ,Moundou Airport,,Chad,TD,8.6244096756,16.0713996887
678,FALA,HLA,Lanseria Airport,,South Africa,ZA,-25.9384994507,27.9260997772
679,PASX,SXQ,Soldotna Airport,AK,United States of America,US,60.4751388888889,-151.039638888889
680,BIRK,RKV,Reykjavík Domestic Airport,,Iceland,IS,64.1299972534,-21.9405994415
681,xxxx,xxx,Scott Lake Lodge,SK,Canada,CA,52.36496,-108.83378
682,SCNK,xxx,Los Pelambres Airport,,Chile,CL,-31.8730564117,-70.6183319092
683,CYAM,YAM,Sault Ste. Marie Airport,ON,Canada,CA,46.4850006104,-84.5093994141
684,TJCG,VQS,Vieques Airport,,Puerto Rico,PR,18.1348111111111,-65.4936166666667
685,WBKK,BKI,Kota Kinabalu Airport,,Malaysia,MY,5.937210083,116.0510025024
686,MMLT,LTO,Loreto Airport,,Mexico,MX,25.989200592,-111.3479995728
687,CYXL,YXL,Sioux Lookout Airport,ON,Canada,CA,50.113899231,-91.9052963257
688,KFLL,FLL,Fort Lauderdale International Airport,FL,United States of America,US,26.0716666666667,-80.1496944444444
689,xxxx,KUY,Kamusi Airport,,Papua New Guinea,PG,-9.45508,147.20381
690,PABE,BET,Bethel Airport,AK,United States of America,US,60.7785555555556,-161.837166666667
691,FQMA,MPM,Maputo International Airport,,Mozambique,MZ,-25.9207992554,32.5726013184
692,xxxx,xxx,Pikany Indian Airstrip,PA,Brazil,BR,-15.7783,-47.9291
693,PHLU,LUP,Kalaupapa Airport,HI,United States of America,US,21.2110402777778,-156.973597222222
694,KTUS,TUS,Tucson International Airport,AZ,United States of America,US,32.1160691666667,-110.941013888889
695,SYOC,xxx,Olive Creek Airport,,Guyana,GY,6.80858,-58.16124
696,VNPK,PKR,Pokhara Airport,,Nepal,NP,28.2008991241,83.9821014404
697,PABE,BET,Bethel Airport,AK,United States of America,US,60.7785555555556,-161.837166666667
698,SADF,xxx,San Fernando Airport,BA,Argentina,AR,-34.4532,-58.5896
699,KHSV,HSV,Huntsville International Airport,AL,United States of America,US,34.6371969444444,-86.7750541666667
700,RCKH,KHH,Kaohsiung International Airport,,Taiwan,TW,22.5771007538,120.3499984741
701,DAAT,TMR,Tamanrasset Airport,,Algeria,DZ,22.8115005493,5.4510798454
702,HSSJ,JUB,Juba Airport,,South Sudan,SS,4.872010231,31.6011009216
703,SYMD,MHA,Mahdia Airport,,Guyana,GY,5.277490139,-59.1511001587
704,UAAH,BXH,Balkhash Airport,,Kazakhstan,KZ,46.8932991028,75.0049972534
705,KTMB,TMB,Miami Executive Airport,FL,United States of America,US,25.6475637222222,-80.4332246111111
706,CYVR,YVR,Vancouver International Airport,BC,Canada,CA,49.193901062,-123.1839981079
707,LEZL,SVQ,Sevilla Airport,,Spain,ES,37.4179992676,-5.8931097984
708,xxxx,xxx,Kattleberg Airport,,Sweden,SE,57.98168,12.15095
709,MMQT,QRO,Querétaro Intercontinental Airport,,Mexico,MX,20.6173000336,-100.185997009
710,xxxx,xxx,Rudyerd Bay,AK,United States of America,US,58.29973,-134.40679
711,xxxx,xxx,Stancuta Airstrip,,Romania,RO,44.89654,27.8295
712,LZDB,xxx,Dubnica Airport,,Slovakia,SK,48.9968986511,18.192199707
713,LZDB,xxx,Dubnica Airport,,Slovakia,SK,48.9968986511,18.192199707
714,EGSG,xxx,Stapleford Airport,,United Kingdom,GB,51.6525001526,0.1558330059
715,FALA,HLA,Lanseria Airport,,South Africa,ZA,-25.9384994507,27.9260997772
716,CYPL,YPL,Pickle Lake Airport,ON,Canada,CA,51.4463996887,-90.2142028809
717,KSLC,SLC,Salt Lake City International Airport,UT,United States of America,US,40.7883933333333,-111.977773333333
718,xxxx,xxx,Sterlitamark Airfield,,Russia,RU,53.63712,55.93656
719,VNPK,PKR,Pokhara Airport,,Nepal,NP,28.2008991241,83.9821014404
720,VGCB,CXB,Cox's Bazar Airport,,Bangladesh,BD,21.4521999359,91.9638977051
721,OMDB,DXB,Dubai Airport,,United Arab Emirates,AE,25.2527999878,55.3643989563
722,AYTN,TKW,Tekin Airport,,Papua New Guinea,PG,-5.2436666667,142.165194444
723,OADY,DWR,Dwyer Airport,,Afghanistan,AF,36.72539,67.205
724,xxxx,xxx,Novopokrovskoye Airstrip,,Russia,RU,51.5765,43.59958
725,UIII,IKT,Irkutsk Airport,,Russia,RU,52.2680015564,104.388999939
726,xxxx,xxx,Dunnellon/Marion County Airport,FL,United States of America,US,29.06216,-82.36858
727,YSEN,xxx,Serpentine Airport,WA,Australia,AU,-32.3949661255,115.8709869385
728,FQBR,BEW,Beira Airport,,Mozambique,MZ,-19.7964000702,34.9076004028
729,WAKT,TMH,Tanahmerah Airport,,Indonesia,ID,-6.099219799,140.2980041504
730,PAPH,PTH,Port Heiden Airport,AK,United States of America,US,56.9591011111111,-158.633361944444
731,xxxx,EKE,Ekereku Airport,,Guyana,GY,6.80858,-58.16124
732,xxxx,xxx,Chernoye Airport,,Russia,RU,43.44806,39.93555
733,UAAA,ALA,Almaty Airport,,Kazakhstan,KZ,43.3521003723,77.0404968262
734,FNDU,DUE,Dundo Airport,,Angola,AO,-7.4008898735,20.8185005188
735,SPCM,xxx,Contamana Airport,,Peru,PE,-7.3366699219,-74.9914016724
736,UHBP,xxx,Ekimchan,,Russia,RU,53.0760993958,132.9510040283
737,UHHY,xxx,Chumikan Airport,,Russia,RU,54.6959991455,135.2859954834
738,EDFE,xxx,Egelsbach Airfield,,Germany,DE,49.9599990845,8.6458330154
739,VNSK,SKH,Surkhet Airport,,Nepal,NP,28.5860004425,81.6360015869
740,xxxx,xxx,Kamako Airstrip,,Democratic Republic of the Congo,CD,-4.31047,15.28932
741,LSMO,xxx,Locarno Air Base,,Switzerland,CH,46.17064,8.8003
742,PTPN,PNI,Pohnpei Airport,,Micronesia,FM,6.98508333333333,158.209805555556
743,YCBG,xxx,Hobart Cambridge Airport,TAS,Australia,AU,-42.8266983032,147.4750061035
744,xxxx,xxx,Rudyerd Bay,AK,United States of America,US,58.29973,-134.40679
745,xxxx,xxx,Vancouver International Water Airport,BC,Canada,CA,49.9505,-119.38183
746,xxxx,xxx,Fakhrabad Airfield,,Tajikistan,TJ,38.56792,68.77152
747,xxxx,xxx,Rau Airstrip,YT,Canada,CA,47.21784,-66.21689
748,FZNA,GOM,Goma Airport,,Democratic Republic of the Congo,CD,-1.6708099842,29.2385005951
749,UAAA,ALA,Almaty Airport,,Kazakhstan,KZ,43.3521003723,77.0404968262
750,FAGG,GRJ,George Airport,,South Africa,ZA,-34.0055999756,22.378900528
751,YSRI,XRH,Richmond RAAF Base,NSW,Australia,AU,-33.6006011963,150.7810058594
752,KICT,ICT,Wichita Dwight D. Eisenhower National Airport,KS,United States of America,US,37.6499525,-97.4330427777778
753,HCMB,BIB,Baidoa Airport,,Somalia,SO,3.1022200584,43.6286010742
754,UWGB,xxx,Bolshoye Boldino Airport,,Russia,RU,55.0200004578,45.3149986267
755,xxxx,xxx,Kyren Airport,,Russia,RU,55.75696,37.61502
756,HSSJ,JUB,Juba Airport,,South Sudan,SS,4.872010231,31.6011009216
757,ZSGZ,KOW,Ganzhou Airport,,China,CN,25.825799942,114.912002563
758,xxxx,xxx,Pieri Airstrip,,South Sudan,SS,8.05373,32.0388
759,KCOE,COE,Coeur d'Alene Airport/Pappy Boyington Field,ID,United States of America,US,47.7743055555556,-116.819583333333
760,EDWR,BMK,Borkum Airfield,,Germany,DE,53.5963897705,6.7091670036
761,UIII,IKT,Irkutsk Airport,,Russia,RU,52.2680015564,104.388999939
762,WABI,NBX,Nabire Airport,,Indonesia,ID,-3.3681800365,135.4960021973
763,UWKP,xxx,Menzelinsk Airport,,Russia,RU,55.29696,61.51207
764,HJJJ,JUB,Juba Airport,,South Sudan,SS,4.872010231,31.6011009216
765,UEEE,YKS,Yakutsk Airport,,Russia,RU,62.0932998657,129.7709960938
766,FZNA,GOM,Goma Airport,,Democratic Republic of the Congo,CD,-1.6708099842,29.2385005951
767,ZPPP,KMG,Kunming Changshui International Airport,,China,CN,24.9923992157,102.7440032959
768,KSLC,SLC,Salt Lake City International Airport,UT,United States of America,US,40.7883933333333,-111.977773333333
769,UKDE,OZH,Zaporozhye Airport,,Ukraine,UA,47.8670005798,35.315700531
770,VNPK,PKR,Pokhara Airport,,Nepal,NP,28.2008991241,83.9821014404
771,KOKB,OCN,Oceanside Municipal Airport,CA,United States of America,US,33.2179763888889,-117.3515075
772,xxxx,xxx,Raeford West Airport,NC,United States of America,US,35.0182,-79.18943
773,EPPT,xxx,Piotrków Trybunalski Airport,,Poland,PL,51.3830986023,19.6882991791
774,xxxx,FBS,Friday Harbor Seaplane Base,WA,United States of America,US,48.53448,-123.01648
775,HTDA,DAR,Dar es Salaam International Airport,,Tanzania,TZ,-6.8781099319,39.2025985718
776,KRNT,RNT,Renton Airport,WA,United States of America,US,47.4931388888889,-122.21575
